[
    {
        "CCSDS_OMM_VERS": "3.0",
        "COMMENT": "GENERATED VIA SPACE-TRACK.ORG API",
        "CREATION_DATE": "2025-03-02T18:08:23",
        "ORIGINATOR": "18 SPCS",
        "OBJECT_NAME": "BEIDOU 3 M28",
        "OBJECT_ID": "2023-207A",
        "CENTER_NAME": "EARTH",
        "REF_FRAME": "TEME",
        "TIME_SYSTEM": "UTC",
        "MEAN_ELEMENT_THEORY": "SGP4",
        "EPOCH": "2025-03-02T07:33:17.328096",
        "MEAN_MOTION": "1.86231924",
        "ECCENTRICITY": "0.00048470",
        "INCLINATION": "55.3304",
        "RA_OF_ASC_NODE": "78.2744",
        "ARG_OF_PERICENTER": "290.5367",
        "MEAN_ANOMALY": "69.4616",
        "EPHEMERIS_TYPE": "0",
        "CLASSIFICATION_TYPE": "U",
        "NORAD_CAT_ID": "58654",
        "ELEMENT_SET_NO": "999",
        "REV_AT_EPOCH": "805",
        "BSTAR": "0.00000000000000",
        "MEAN_MOTION_DOT": "0.00000007",
        "MEAN_MOTION_DDOT": "0.0000000000000",
        "SEMIMAJOR_AXIS": "27906.096",
        "PERIOD": "773.229",
        "APOAPSIS": "21541.487",
        "PERIAPSIS": "21514.435",
        "OBJECT_TYPE": "PAYLOAD",
        "RCS_SIZE": "LARGE",
        "COUNTRY_CODE": "PRC",
        "LAUNCH_DATE": "2023-12-26",
        "SITE": "XSC",
        "DECAY_DATE": null,
        "FILE": "4657142",
        "GP_ID": "282096238",
        "TLE_LINE0": "0 BEIDOU 3 M28",
        "TLE_LINE1": "1 58654U 23207A   25061.31478389  .00000007  00000-0  00000-0 0  9996",
        "TLE_LINE2": "2 58654  55.3304  78.2744 0004847 290.5367  69.4616  1.86231924  8058"
    }
]